[{"OBJECT_NAME":"JILIN-1 07","OBJECT_ID":"2018-008E","EPOCH":"2026-03-09T22:24:26.445888","MEAN_MOTION":15.32987507,"ECCENTRICITY":0.00101791,"INCLINATION":97.1876,"RA_OF_ASC_NODE":91.5817,"ARG_OF_PERICENTER":62.7832,"MEAN_ANOMALY":297.4447,"EPHEMERIS_TYPE":0,"CLASSIFICATION_TYPE":"U","NORAD_CAT_ID":43159,"ELEMENT_SET_NO":999,"REV_AT_EPOCH":44978,"BSTAR":0.00036439521,"MEAN_MOTION_DOT":0.00011559,"MEAN_MOTION_DDOT":0},{"OBJECT_NAME":"STARLINK-35070","OBJECT_ID":"2025-212E","EPOCH":"2026-03-09T22:10:12.304992","MEAN_MOTION":15.30210199,"ECCENTRICITY":0.0001016,"INCLINATION":53.1595,"RA_OF_ASC_NODE":344.2864,"ARG_OF_PERICENTER":88.0712,"MEAN_ANOMALY":272.0405,"EPHEMERIS_TYPE":0,"CLASSIFICATION_TYPE":"U","NORAD_CAT_ID":65680,"ELEMENT_SET_NO":999,"REV_AT_EPOCH":2728,"BSTAR":0.00085576135,"MEAN_MOTION_DOT":0.0002508,"MEAN_MOTION_DDOT":0}]
